NORAD_CAT_ID,OBJECT_NAME,OBJECT_TYPE,EPOCH,MEAN_MOTION,ECCENTRICITY,INCLINATION,RA_OF_ASC_NODE,ARG_OF_PERICENTER,MEAN_ANOMALY,BSTAR,MEAN_MOTION_DOT,MEAN_MOTION_DDOT,TLE_LINE0,TLE_LINE1,TLE_LINE2,SEMIMAJOR_AXIS,PERIOD,APOGEE,PERIGEE,DECAYED
53860.0,STARLINK-4799,PAYLOAD,2024-05-26 21:50:32,15.08844815,0.0001148,53.2176,330.1873,91.4011,268.7113,0.00013497,1.861e-05,0.0,0 STARLINK-4799,1 53860U 22114AU  24147.91009989  .00001861  00000-0  13497-3 0  9998,2 53860  53.2176 330.1873 0001148  91.4011 268.7113 15.08844815 94479,6917.866,95.437,540.525,538.937,0.0
53860.0,STARLINK-4799,PAYLOAD,2024-05-27 18:30:33,15.08844453,0.0001279,53.2181,326.3184,84.6087,275.5051,0.00017024,2.423e-05,0.0,0 STARLINK-4799,1 53860U 22114AU  24148.77122055  .00002423  00000-0  17024-3 0  9998,2 53860  53.2181 326.3184 0001279  84.6087 275.5051 15.08844453 94609,6917.867,95.437,540.617,538.847,0.0
53860.0,STARLINK-4799,PAYLOAD,2024-05-28 11:59:47,15.08844425,0.000141,53.2192,323.0496,95.9513,264.164,9.1034e-05,1.161e-05,0.0,0 STARLINK-4799,1 53860U 22114AU  24149.49985958  .00001161  00000-0  91034-4 0  9999,2 53860  53.2192 323.0496 0001410  95.9513 264.1640 15.08844425 94413,6917.867,95.437,540.707,538.756,0.0
53860.0,STARLINK-4799,PAYLOAD,2024-05-28 18:21:20,15.08843819,0.0001335,53.2193,321.8611,104.6228,255.4912,7.9772e-05,9.82e-06,0.0,0 STARLINK-4799,1 53860U 22114AU  24149.76481871  .00000982  00000-0  79772-4 0  9999,2 53860  53.2193 321.8611 0001335 104.6228 255.4912 15.08843819 94754,6917.869,95.437,540.657,538.81,0.0
53860.0,STARLINK-4799,PAYLOAD,2024-05-29 11:50:35,15.08839932,0.0001445,53.22,318.596,110.8123,249.3024,3.3748e-05,2.49e-06,0.0,0 STARLINK-4799,1 53860U 22114AU  24150.49346237  .00000249  00000-0  33748-4 0  9996,2 53860  53.2200 318.5960 0001445 110.8123 249.3024 15.08839932 94564,6917.881,95.438,540.745,538.746,0.0
53860.0,STARLINK-4799,PAYLOAD,2024-05-29 16:36:44,15.08839612,0.0001385,53.2195,317.7029,109.0272,251.087,1.5543e-05,-4.1e-07,0.0,0 STARLINK-4799,1 53860U 22114AU  24150.69218210 -.00000041  00000-0  15543-4 0  9991,2 53860  53.2195 317.7029 0001385 109.0272 251.0870 15.08839612 94892,6917.882,95.438,540.705,538.788,0.0
53860.0,STARLINK-4799,PAYLOAD,2024-05-30 14:52:08,15.08836027,0.0001348,53.2192,313.5416,108.9555,251.1583,3.9074e-05,3.34e-06,0.0,0 STARLINK-4799,1 53860U 22114AU  24151.61954646  .00000334  00000-0  39074-4 0  9993,2 53860  53.2192 313.5416 0001348 108.9555 251.1583 15.08836027 95030,6917.893,95.438,540.69,538.825,0.0
53860.0,STARLINK-4799,PAYLOAD,2024-05-30 16:27:32,15.08835232,0.0001326,53.219,313.244,108.2535,251.8601,2.9785e-05,1.86e-06,0.0,0 STARLINK-4799,1 53860U 22114AU  24151.68578731  .00000186  00000-0  29785-4 0  9990,2 53860  53.2190 313.2440 0001326 108.2535 251.8601 15.08835232 94741,6917.895,95.438,540.677,538.843,0.0
53860.0,STARLINK-4799,PAYLOAD,2024-05-31 14:42:55,15.08845929,0.0001286,53.2192,309.081,103.683,256.4305,0.00014843,2.076e-05,0.0,0 STARLINK-4799,1 53860U 22114AU  24152.61313795  .00002076  00000-0  14843-3 0  9999,2 53860  53.2192 309.0810 0001286 103.6830 256.4305 15.08845929 95184,6917.862,95.437,540.617,538.838,0.0
53860.0,STARLINK-4799,PAYLOAD,2024-05-31 19:29:03,15.0885904,0.0001276,53.219,308.1856,94.5434,265.5704,0.00024348,3.591e-05,0.0,0 STARLINK-4799,1 53860U 22114AU  24152.81184715  .00003591  00000-0  24348-3 0  9993,2 53860  53.2190 308.1856 0001276  94.5434 265.5704 15.08859040 94912,6917.822,95.436,540.57,538.804,0.0
53860.0,STARLINK-4799,PAYLOAD,2024-06-01 03:26:00,15.08842448,0.0001521,53.2194,306.702,94.8005,265.3161,7.2786e-05,8.71e-06,0.0,0 STARLINK-4799,1 53860U 22114AU  24153.14306176  .00000871  00000-0  72786-4 0  9995,2 53860  53.2194 306.7020 0001521  94.8005 265.3161 15.08842448 94967,6917.873,95.437,540.79,538.686,0.0
53860.0,STARLINK-4799,PAYLOAD,2024-06-01 14:33:43,15.0883278,0.0001826,53.2169,304.6163,87.1221,272.998,0.00013411,1.847e-05,0.0,0 STARLINK-4799,1 53860U 22114AU  24153.60674972  .00001847  00000-0  13411-3 0  9991,2 53860  53.2169 304.6163 0001826  87.1221 272.9980 15.08832780 95330,6917.902,95.438,541.031,538.504,0.0
53860.0,STARLINK-4799,PAYLOAD,2024-06-01 17:44:29,15.08836264,0.0001433,53.2175,304.0183,82.3805,277.735,1.7583e-05,-8e-08,0.0,0 STARLINK-4799,1 53860U 22114AU  24153.73922554 -.00000008  00000-0  17583-4 0  9991,2 53860  53.2175 304.0183 0001433  82.3805 277.7350 15.08836264 95056,6917.892,95.438,540.748,538.765,0.0
53860.0,STARLINK-4799,PAYLOAD,2024-06-02 09:38:20,15.08842469,0.0001557,53.2179,301.0492,86.6124,273.5046,-2.72e-05,-7.21e-06,0.0,0 STARLINK-4799,1 53860U 22114AU  24154.40162410 -.00000721  00000-0 -27200-4 0  9993,2 53860  53.2179 301.0492 0001557  86.6124 273.5046 15.08842469 95452,6917.873,95.437,540.815,538.661,0.0
53860.0,STARLINK-4799,PAYLOAD,2024-06-02 15:59:52,15.08845323,0.0001526,53.2176,299.8597,87.247,272.8696,4.241e-05,3.87e-06,0.0,0 STARLINK-4799,1 53860U 22114AU  24154.66658272  .00000387  00000-0  42410-4 0  9993,2 53860  53.2176 299.8597 0001526  87.2470 272.8696 15.08845323 95192,6917.864,95.437,540.785,538.673,0.0
53860.0,STARLINK-4799,PAYLOAD,2024-06-03 12:39:54,15.08834195,0.0001365,53.2167,295.9924,93.9226,266.1922,0.00036282,5.49e-05,0.0,0 STARLINK-4799,1 53860U 22114AU  24155.52771185  .00005490  00000-0  36282-3 0  9997,2 53860  53.2167 295.9924 0001365  93.9226 266.1922 15.08834195 95325,6917.898,95.438,540.707,538.819,0.0
53860.0,STARLINK-4799,PAYLOAD,2024-06-03 15:50:40,15.08840072,0.0001424,53.2167,295.3977,90.0107,270.1048,0.00023455,3.447e-05,0.0,0 STARLINK-4799,1 53860U 22114AU  24155.66018856  .00003447  00000-0  23455-3 0  9999,2 53860  53.2167 295.3977 0001424  90.0107 270.1048 15.08840072 95649,6917.88,95.438,540.73,538.76,0.0
53860.0,STARLINK-4799,PAYLOAD,2024-06-04 09:19:54,15.08846731,0.0001586,53.2147,292.125,94.2745,265.8429,0.0002254,3.302e-05,0.0,0 STARLINK-4799,1 53860U 22114AU  24156.38882521  .00003302  00000-0  22540-3 0  9991,2 53860  53.2147 292.1250 0001586  94.2745 265.8429 15.08846731 95753,6917.86,95.437,540.822,538.628,0.0
53860.0,STARLINK-4799,PAYLOAD,2024-06-04 15:41:26,15.08853949,0.0001537,53.215,290.937,88.7454,271.3715,0.00029021,4.335e-05,0.0,0 STARLINK-4799,1 53860U 22114AU  24156.65378114  .00004335  00000-0  29021-3 0  9997,2 53860  53.2150 290.9370 0001537  88.7454 271.3715 15.08853949 95497,6917.838,95.437,540.766,538.639,0.0
53860.0,STARLINK-4799,PAYLOAD,2024-06-05 12:21:28,15.0883425,0.0001455,53.216,287.0698,107.9384,252.1766,1.6101e-05,-3.2e-07,0.0,0 STARLINK-4799,1 53860U 22114AU  24157.51491114 -.00000032  00000-0  16101-4 0  9996,2 53860  53.2160 287.0698 0001455 107.9384 252.1766 15.08834250 95625,6917.898,95.438,540.77,538.756,0.0
53860.0,STARLINK-4799,PAYLOAD,2024-06-05 15:32:14,15.08833227,0.0001162,53.2156,286.4761,90.0073,270.1053,-3.2796e-05,-8.1e-06,0.0,0 STARLINK-4799,1 53860U 22114AU  24157.64739109 -.00000810  00000-0 -32796-4 0  9992,2 53860  53.2156 286.4761 0001162  90.0073 270.1053 15.08833227 95943,6917.901,95.438,540.57,538.962,0.0
53860.0,STARLINK-4799,PAYLOAD,2024-06-06 12:12:15,15.08839601,0.0001253,53.2172,282.6118,97.117,262.9965,0.00012433,1.691e-05,0.0,0 STARLINK-4799,1 53860U 22114AU  24158.50851193  .00001691  00000-0  12433-3 0  9997,2 53860  53.2172 282.6118 0001253  97.1170 262.9965 15.08839601 96070,6917.882,95.438,540.613,538.88,0.0
53860.0,STARLINK-4799,PAYLOAD,2024-06-07 08:52:16,15.08838662,6.73e-05,53.216,278.7454,33.6388,326.4647,0.0002386,3.512e-05,0.0,0 STARLINK-4799,1 53860U 22114AU  24159.36963600  .00003512  00000-0  23860-3 0  9999,2 53860  53.2160 278.7454 0000673  33.6388 326.4647 15.08838662 95907,6917.884,95.438,540.215,539.284,0.0
53860.0,STARLINK-4799,PAYLOAD,2024-06-07 15:13:48,15.08849329,8.4e-05,53.2168,277.5579,73.8884,286.22,0.00039225,5.962e-05,0.0,0 STARLINK-4799,1 53860U 22114AU  24159.63459250  .00005962  00000-0  39225-3 0  9993,2 53860  53.2168 277.5579 0000840  73.8884 286.2200 15.08849329 96241,6917.852,95.437,540.298,539.136,0.0
53860.0,STARLINK-4799,PAYLOAD,2024-06-07 16:49:11,15.08856331,0.0001275,53.217,277.2605,87.9024,272.2114,0.00053696,8.272e-05,0.0,0 STARLINK-4799,1 53860U 22114AU  24159.70082975  .00008272  00000-0  53696-3 0  9992,2 53860  53.2170 277.2605 0001275  87.9024 272.2114 15.08856331 95953,6917.83,95.437,540.577,538.813,0.0
53860.0,STARLINK-4799,PAYLOAD,2024-06-08 00:46:07,15.0885162,0.0001611,53.2166,275.7721,90.0427,270.0749,0.00036035,5.453e-05,0.0,0 STARLINK-4799,1 53860U 22114AU  24160.03202973  .00005453  00000-0  36035-3 0  9998,2 53860  53.2166 275.7721 0001611  90.0427 270.0749 15.08851620 96009,6917.845,95.437,540.824,538.595,0.0
53860.0,STARLINK-4799,PAYLOAD,2024-06-08 11:53:48,15.08860467,0.0001457,53.2153,273.69,83.6957,276.4201,0.00043367,6.624e-05,0.0,0 STARLINK-4799,1 53860U 22114AU  24160.49570408  .00006624  00000-0  43367-3 0  9996,2 53860  53.2153 273.6900 0001457  83.6957 276.4201 15.08860467 96377,6917.818,95.436,540.691,538.675,0.0
53860.0,STARLINK-4799,PAYLOAD,2024-06-08 16:39:57,15.08864876,0.0001684,53.2149,272.7983,86.5857,273.5328,0.00071229,0.00011074,0.0,0 STARLINK-4799,1 53860U 22114AU  24160.69442089  .00011074  00000-0  71229-3 0  9994,2 53860  53.2149 272.7983 0001684  86.5857 273.5328 15.08864876 96406,6917.804,95.436,540.834,538.504,0.0
53860.0,STARLINK-4799,PAYLOAD,2024-06-09 00:36:54,15.08837267,0.0002832,53.2144,271.3125,80.0757,280.0554,-0.00012233,-2.235e-05,0.0,0 STARLINK-4799,1 53860U 22114AU  24161.02562838 -.00002235  00000-0 -12233-3 0  9998,2 53860  53.2144 271.3125 0002832  80.0757 280.0554 15.08837267 96158,6917.889,95.438,541.713,537.795,0.0
53860.0,STARLINK-4799,PAYLOAD,2024-06-09 11:44:36,15.08826478,0.0001292,53.2147,269.2307,79.3971,280.7166,-0.00021004,-3.628e-05,0.0,0 STARLINK-4799,1 53860U 22114AU  24161.48930935 -.00003628  00000-0 -21004-3 0  9998,2 53860  53.2147 269.2307 0001292  79.3971 280.7166 15.08826478 96223,6917.922,95.438,540.681,538.893,0.0
